LIZZIESAT-2 (LS-2)      
1 62383U 24247G   26068.49140277  .00009388  00000+0  34517-3 0  9997
2 62383  44.9909 117.0823 0004092 327.5136  32.5495 15.28222796 67716
STARLINK-34099          
1 63959U 25099H   26068.30304514  .00034984  00000+0  12723-2 0  9993
2 63959  43.0018 178.7135 0002673 282.2110  77.8442 15.27642428 47279
