[{"OBJECT_NAME":"LIZZIESAT-2 (LS-2)","OBJECT_ID":"2024-247G","EPOCH":"2026-03-09T11:47:37.199328","MEAN_MOTION":15.28222796,"ECCENTRICITY":0.00040927,"INCLINATION":44.9909,"RA_OF_ASC_NODE":117.0823,"ARG_OF_PERICENTER":327.5136,"MEAN_ANOMALY":32.5495,"EPHEMERIS_TYPE":0,"CLASSIFICATION_TYPE":"U","NORAD_CAT_ID":62383,"ELEMENT_SET_NO":999,"REV_AT_EPOCH":6771,"BSTAR":0.00034516624,"MEAN_MOTION_DOT":9.388e-5,"MEAN_MOTION_DDOT":0},{"OBJECT_NAME":"STARLINK-34099","OBJECT_ID":"2025-099H","EPOCH":"2026-03-09T07:16:23.100096","MEAN_MOTION":15.27642428,"ECCENTRICITY":0.00026737,"INCLINATION":43.0018,"RA_OF_ASC_NODE":178.7135,"ARG_OF_PERICENTER":282.211,"MEAN_ANOMALY":77.8442,"EPHEMERIS_TYPE":0,"CLASSIFICATION_TYPE":"U","NORAD_CAT_ID":63959,"ELEMENT_SET_NO":999,"REV_AT_EPOCH":4727,"BSTAR":0.0012723281,"MEAN_MOTION_DOT":0.00034984,"MEAN_MOTION_DDOT":0}]
